GLOBALSTAR M068 [-]     
1 32266U 07048D   24078.47370994 -.00000043  00000+0  33582-3 0  9993
2 32266  51.9866 251.3757 0000960 156.4680 222.3241 12.62782287759980
GLOBALSTAR M079 [+]     
1 37188U 10054A   24079.18952906 -.00000098  00000+0  33274-4 0  9999
2 37188  52.0031  84.8705 0000446  67.2794  11.5820 12.62267407619674
GLOBALSTAR M074 [+]     
1 37189U 10054B   24078.35079672 -.00000109  00000+0 -30779-4 0  9999
2 37189  52.0005  86.8176 0000362 107.0150 358.1554 12.62266178619494
GLOBALSTAR M076 [+]     
1 37190U 10054C   24079.16260132 -.00000095  00000+0  49454-4 0  9997
2 37190  52.0020  84.4761 0000866  91.8962 343.8216 12.62275589619679
GLOBALSTAR M077 [+]     
1 37191U 10054D   24079.13574900 -.00000099  00000+0  23847-4 0  9998
2 37191  52.0089  41.2825 0000449  89.1641 284.0875 12.62270184620415
GLOBALSTAR M075 [+]     
1 37192U 10054E   24079.16201383 -.00000098  00000+0  34706-4 0  9999
2 37192  51.9932 126.9904 0000401  98.5209 274.3190 12.62271799618919
GLOBALSTAR M073 [+]     
1 37193U 10054F   24078.84531921 -.00000103  00000+0  70611-5 0  9991
2 37193  52.0077  41.4212 0000546  77.0379 297.1364 12.62262463620338
GLOBALSTAR M083 [+]     
1 37739U 11033A   24078.95232755 -.00000083  00000+0  11661-3 0  9995
2 37739  51.9888 350.4527 0000457  57.6155  23.0264 12.62266692589361
GLOBALSTAR M088 [+]     
1 37740U 11033B   24078.69884340 -.00000077  00000+0  14742-3 0  9997
2 37740  51.9714 257.0985 0000717  80.0997  48.6836 12.62266184584879
GLOBALSTAR M091 [+]     
1 37741U 11033C   24078.79531774 -.00000084  00000+0  11154-3 0  9991
2 37741  51.9981 219.5431 0000604  82.5419  65.1106 12.62272517585676
GLOBALSTAR M085 [+]     
1 37742U 11033D   24078.99832437 -.00000102  00000+0  10391-4 0  9998
2 37742  51.9858 170.3690 0000417  95.9501 313.8085 12.62268676586708
GLOBALSTAR M081 [+]     
1 37743U 11033E   24078.47717014 -.00000102  00000+0  10241-4 0  9999
2 37743  51.9951 174.4608 0000591  82.4165 358.5738 12.62270562586299
GLOBALSTAR M089 [+]     
1 37744U 11033F   24078.44251573 -.00000096  00000+0  43562-4 0  9994
2 37744  51.9919 128.8820 0000883 106.2599 356.2230 12.62272429587133
GLOBALSTAR M084 [+]     
1 38040U 11080A   24079.17815455 -.00000074  00000+0  16651-3 0  9996
2 38040  52.0038 353.6872 0000838  92.1350  55.3280 12.62272215565489
GLOBALSTAR M080 [+]     
1 38041U 11080B   24078.20164503 -.00000089  00000+0  81617-4 0  9992
2 38041  52.0091 358.1075 0000989  85.4966  61.4885 12.62269815565200
GLOBALSTAR M082 [+]     
1 38042U 11080C   24078.84414934 -.00000073  00000+0  17053-3 0  9994
2 38042  52.0083 311.5520 0000181  47.1316  81.0517 12.62267062565996
GLOBALSTAR M092 [+]     
1 38043U 11080D   24078.87266917 -.00000104  00000+0  43486-7 0  9992
2 38043  52.0099  41.8126 0000474 109.7000 267.9323 12.62276749564451
GLOBALSTAR M090 [+]     
1 38044U 11080E   24078.94404233 -.00000074  00000+0  16890-3 0  9997
2 38044  51.9889 305.6416 0000509  69.6950  33.7232 12.62267286566127
GLOBALSTAR M086 [+]     
1 38045U 11080F   24079.06307670 -.00000071  00000+0  18231-3 0  9997
2 38045  51.9901 305.7956 0001528  53.2511 110.7561 12.62268448566185
GLOBALSTAR M097 [+]     
1 39072U 13005A   24078.81591811 -.00000098  00000+0  34672-4 0  9998
2 39072  52.0031 220.6294 0000666  81.4409 278.6533 12.62261706513302
GLOBALSTAR M093 [+]     
1 39073U 13005B   24078.78934988 -.00000081  00000+0  12779-3 0  9996
2 39073  51.9795 214.7412 0000649  75.5303 284.5635 12.62262259513259
GLOBALSTAR M094 [+]     
1 39074U 13005C   24078.31429760 -.00000103  00000+0  42117-5 0  9999
2 39074  51.9945 130.1158 0000357  84.4011 275.6896 12.62263751514806
GLOBALSTAR M096 [+]     
1 39075U 13005D   24078.64413457 -.00000090  00000+0  74087-4 0  9997
2 39075  52.0066 177.2690 0000496  83.4662 276.6261 12.62273616513763
GLOBALSTAR M078 [+]     
1 39076U 13005E   24078.69745813 -.00000083  00000+0  11395-3 0  9991
2 39076  51.9854 262.2406 0000404 208.7816 151.3028 12.62261334512391
GLOBALSTAR M095 [+]     
1 39077U 13005F   24078.64413711 -.00000083  00000+0  11419-3 0  9993
2 39077  51.9782 259.8218 0000246  60.3365 299.7526 12.62264682512243
GLOBALSTAR M087 [+]     
1 52888U 22064A   24078.39511466 -.00000101  00000+0  52008-4 0  9992
2 52888  51.9750 164.9678 0010009 132.6590 227.5155 13.37567610 85376
